
    {
        "ARG_OF_PERICENTER": 141.7847,
        "BSTAR": 0.00055217,
        "CLASSIFICATION_TYPE": "U",
        "ECCENTRICITY": 0.0006225,
        "ELEMENT_SET_NO": 999,
        "EPHEMERIS_TYPE": 0,
        "EPOCH": "2026-05-05T09:53:09.335040",
        "INCLINATION": 97.8756,
        "MEAN_ANOMALY": 218.3837,
        "MEAN_MOTION": 15.33620045,
        "MEAN_MOTION_DDOT": 0,
        "MEAN_MOTION_DOT": 0.00017894,
        "NORAD_CAT_ID": 46506,
        "OBJECT_ID": "2020-068W",
        "OBJECT_NAME": "NETSAT-1",
        "RA_OF_ASC_NODE": 123.3602,
        "REV_AT_EPOCH": 30874
    },
    {
        "ARG_OF_PERICENTER": 129.2919,
        "BSTAR": 0.00052809,
        "CLASSIFICATION_TYPE": "U",
        "ECCENTRICITY": 0.0005846,
        "ELEMENT_SET_NO": 999,
        "EPHEMERIS_TYPE": 0,
        "EPOCH": "2026-05-05T11:38:14.051040",
        "INCLINATION": 97.8636,
        "MEAN_ANOMALY": 230.8847,
        "MEAN_MOTION": 15.4422143,
        "MEAN_MOTION_DDOT": 0,
        "MEAN_MOTION_DOT": 0.00024211,
        "NORAD_CAT_ID": 46507,
        "OBJECT_ID": "2020-068X",
        "OBJECT_NAME": "NETSAT-2",
        "RA_OF_ASC_NODE": 130.0965,
        "REV_AT_EPOCH": 30914
    },
    {
        "ARG_OF_PERICENTER": 299.7286,
        "BSTAR": 0,
        "CLASSIFICATION_TYPE": "U",
        "ECCENTRICITY": 0.0008853,
        "ELEMENT_SET_NO": 999,
        "EPHEMERIS_TYPE": 0,
        "EPOCH": "2026-05-05T12:57:29.449152",
        "INCLINATION": 70.1443,
        "MEAN_ANOMALY": 60.2492,
        "MEAN_MOTION": 6.42583315,
        "MEAN_MOTION_DDOT": 0,
        "MEAN_MOTION_DOT": -3e-08,
        "NORAD_CAT_ID": 53109,
        "OBJECT_ID": "2022-080E",
        "OBJECT_NAME": "GREENCUBE (IO-117)",
        "RA_OF_ASC_NODE": 313.0842,
        "REV_AT_EPOCH": 8932
    },
    {
        "ARG_OF_PERICENTER": 249.0521,
        "BSTAR": 0.00048499,
        "CLASSIFICATION_TYPE": "U",
        "ECCENTRICITY": 0.0010199,
        "ELEMENT_SET_NO": 999,
        "EPHEMERIS_TYPE": 0,
        "EPOCH": "2026-05-05T11:07:59.452320",
        "INCLINATION": 97.5081,
        "MEAN_ANOMALY": 110.9627,
        "MEAN_MOTION": 15.28497529,
        "MEAN_MOTION_DDOT": 0,
        "MEAN_MOTION_DOT": 0.00013404,
        "NORAD_CAT_ID": 57176,
        "OBJECT_ID": "2023-091L",
        "OBJECT_NAME": "SITRO-AIS 5 (KATYS)",
        "RA_OF_ASC_NODE": 188.9847,
        "REV_AT_EPOCH": 15781
    },
    {
        "ARG_OF_PERICENTER": 253.2637,
        "BSTAR": 0.00025825,
        "CLASSIFICATION_TYPE": "U",
        "ECCENTRICITY": 0.001039,
        "ELEMENT_SET_NO": 999,
        "EPHEMERIS_TYPE": 0,
        "EPOCH": "2026-05-05T11:28:27.636960",
        "INCLINATION": 97.5088,
        "MEAN_ANOMALY": 106.7461,
        "MEAN_MOTION": 15.25185009,
        "MEAN_MOTION_DDOT": 0,
        "MEAN_MOTION_DOT": 6.415e-05,
        "NORAD_CAT_ID": 57192,
        "OBJECT_ID": "2023-091AC",
        "OBJECT_NAME": "SITRO-AIS 6 (CHIRKIN)",
        "RA_OF_ASC_NODE": 188.3381,
        "REV_AT_EPOCH": 15777
    },
    {
        "ARG_OF_PERICENTER": 243.9564,
        "BSTAR": 0.00047081,
        "CLASSIFICATION_TYPE": "U",
        "ECCENTRICITY": 0.0009453,
        "ELEMENT_SET_NO": 999,
        "EPHEMERIS_TYPE": 0,
        "EPOCH": "2026-05-05T11:42:19.656000",
        "INCLINATION": 97.5075,
        "MEAN_ANOMALY": 116.0704,
        "MEAN_MOTION": 15.31015545,
        "MEAN_MOTION_DDOT": 0,
        "MEAN_MOTION_DOT": 0.00014058,
        "NORAD_CAT_ID": 57193,
        "OBJECT_ID": "2023-091AD",
        "OBJECT_NAME": "SITRO-AIS 8 (ANOKHIN)",
        "RA_OF_ASC_NODE": 190.4301,
        "REV_AT_EPOCH": 15791
    },
    {
        "ARG_OF_PERICENTER": 254.5203,
        "BSTAR": 0.00024439,
        "CLASSIFICATION_TYPE": "U",
        "ECCENTRICITY": 0.001023,
        "ELEMENT_SET_NO": 999,
        "EPHEMERIS_TYPE": 0,
        "EPOCH": "2026-05-05T11:20:50.078976",
        "INCLINATION": 97.5087,
        "MEAN_ANOMALY": 105.4905,
        "MEAN_MOTION": 15.24892747,
        "MEAN_MOTION_DDOT": 0,
        "MEAN_MOTION_DOT": 6.013e-05,
        "NORAD_CAT_ID": 57194,
        "OBJECT_ID": "2023-091AE",
        "OBJECT_NAME": "SITRO-AIS 7 (FARTUSHNIY)",
        "RA_OF_ASC_NODE": 188.1791,
        "REV_AT_EPOCH": 15776
    },
    {
        "ARG_OF_PERICENTER": 212.753,
        "BSTAR": 0.00057653,
        "CLASSIFICATION_TYPE": "U",
        "ECCENTRICITY": 0.0006369,
        "ELEMENT_SET_NO": 999,
        "EPHEMERIS_TYPE": 0,
        "EPOCH": "2026-05-05T11:55:51.833280",
        "INCLINATION": 97.5095,
        "MEAN_ANOMALY": 147.332,
        "MEAN_MOTION": 15.37040443,
        "MEAN_MOTION_DDOT": 0,
        "MEAN_MOTION_DOT": 0.00020855,
        "NORAD_CAT_ID": 57199,
        "OBJECT_ID": "2023-091AK",
        "OBJECT_NAME": "SITRO-AIS 10 (BURDAEV)",
        "RA_OF_ASC_NODE": 195.0702,
        "REV_AT_EPOCH": 15820
    },
    {
        "ARG_OF_PERICENTER": 213.2685,
        "BSTAR": 0.00055241,
        "CLASSIFICATION_TYPE": "U",
        "ECCENTRICITY": 0.0006583,
        "ELEMENT_SET_NO": 999,
        "EPHEMERIS_TYPE": 0,
        "EPOCH": "2026-05-05T12:15:18.673056",
        "INCLINATION": 97.5094,
        "MEAN_ANOMALY": 146.8145,
        "MEAN_MOTION": 15.36592323,
        "MEAN_MOTION_DDOT": 0,
        "MEAN_MOTION_DOT": 0.00019691,
        "NORAD_CAT_ID": 57201,
        "OBJECT_ID": "2023-091AM",
        "OBJECT_NAME": "SITRO-AIS 9 (SHCHUKIN)",
        "RA_OF_ASC_NODE": 194.8458,
        "REV_AT_EPOCH": 15819
    },
    {
        "ARG_OF_PERICENTER": 206.4047,
        "BSTAR": 0.00055774,
        "CLASSIFICATION_TYPE": "U",
        "ECCENTRICITY": 0.0006389,
        "ELEMENT_SET_NO": 999,
        "EPHEMERIS_TYPE": 0,
        "EPOCH": "2026-05-05T12:13:15.036384",
        "INCLINATION": 97.5107,
        "MEAN_ANOMALY": 153.6872,
        "MEAN_MOTION": 15.36873423,
        "MEAN_MOTION_DDOT": 0,
        "MEAN_MOTION_DOT": 0.00020062,
        "NORAD_CAT_ID": 57204,
        "OBJECT_ID": "2023-091AQ",
        "OBJECT_NAME": "SITRO-AIS 12 (SMIRENNIY)",
        "RA_OF_ASC_NODE": 195.2852,
        "REV_AT_EPOCH": 15821
    },
    {
        "ARG_OF_PERICENTER": 206.4224,
        "BSTAR": 0.0007446,
        "CLASSIFICATION_TYPE": "U",
        "ECCENTRICITY": 0.0006297,
        "ELEMENT_SET_NO": 999,
        "EPHEMERIS_TYPE": 0,
        "EPOCH": "2026-05-05T11:15:01.378944",
        "INCLINATION": 97.5104,
        "MEAN_ANOMALY": 153.67,
        "MEAN_MOTION": 15.37264297,
        "MEAN_MOTION_DDOT": 0,
        "MEAN_MOTION_DOT": 0.00027176,
        "NORAD_CAT_ID": 57208,
        "OBJECT_ID": "2023-091AU",
        "OBJECT_NAME": "SITRO-AIS 11 (SHEFFER)",
        "RA_OF_ASC_NODE": 195.4648,
        "REV_AT_EPOCH": 15822
    },
    {
        "ARG_OF_PERICENTER": 117.0758,
        "BSTAR": 0.00056824,
        "CLASSIFICATION_TYPE": "U",
        "ECCENTRICITY": 0.0147515,
        "ELEMENT_SET_NO": 999,
        "EPHEMERIS_TYPE": 0,
        "EPOCH": "2026-05-05T11:49:08.962176",
        "INCLINATION": 95.3914,
        "MEAN_ANOMALY": 244.5607,
        "MEAN_MOTION": 14.93203055,
        "MEAN_MOTION_DDOT": 0,
        "MEAN_MOTION_DOT": 7.323e-05,
        "NORAD_CAT_ID": 59066,
        "OBJECT_ID": "2024-039R",
        "OBJECT_NAME": "SITRO-AIS 25",
        "RA_OF_ASC_NODE": 205.7594,
        "REV_AT_EPOCH": 11835
    }