NETSAT-1                
1 46506U 20068W   26125.41191360  .00017894  00000+0  55217-3 0  9999
2 46506  97.8756 123.3602 0006225 141.7847 218.3837 15.33620045308742
NETSAT-2                
1 46507U 20068X   26125.48488485  .00024211  00000+0  52809-3 0  9999
2 46507  97.8636 130.0965 0005846 129.2919 230.8847 15.44221430309148
GREENCUBE (IO-117)      
1 53109U 22080E   26125.53992418 -.00000003  00000+0  00000+0 0  9999
2 53109  70.1443 313.0842 0008853 299.7286  60.2492  6.42583315 89329
SITRO-AIS 5 (KATYS)     
1 57176U 23091L   26125.46388255  .00013404  00000+0  48499-3 0  9996
2 57176  97.5081 188.9847 0010199 249.0521 110.9627 15.28497529157816
SITRO-AIS 6 (CHIRKIN)   
1 57192U 23091AC  26125.47809765  .00006415  00000+0  25825-3 0  9991
2 57192  97.5088 188.3381 0010390 253.2637 106.7461 15.25185009157774
SITRO-AIS 8 (ANOKHIN)   
1 57193U 23091AD  26125.48772750  .00014058  00000+0  47081-3 0  9996
2 57193  97.5075 190.4301 0009453 243.9564 116.0704 15.31015545157914
SITRO-AIS 7 (FARTUSHNIY)
1 57194U 23091AE  26125.47280184  .00006013  00000+0  24439-3 0  9995
2 57194  97.5087 188.1791 0010230 254.5203 105.4905 15.24892747157765
SITRO-AIS 10 (BURDAEV)  
1 57199U 23091AK  26125.49712770  .00020855  00000+0  57653-3 0  9997
2 57199  97.5095 195.0702 0006369 212.7530 147.3320 15.37040443158203
SITRO-AIS 9 (SHCHUKIN)  
1 57201U 23091AM  26125.51063279  .00019691  00000+0  55241-3 0  9994
2 57201  97.5094 194.8458 0006583 213.2685 146.8145 15.36592323158191
SITRO-AIS 12 (SMIRENNIY)
1 57204U 23091AQ  26125.50920181  .00020062  00000+0  55774-3 0  9995
2 57204  97.5107 195.2852 0006389 206.4047 153.6872 15.36873423158211
SITRO-AIS 11 (SHEFFER)  
1 57208U 23091AU  26125.46876596  .00027176  00000+0  74460-3 0  9990
2 57208  97.5104 195.4648 0006297 206.4224 153.6700 15.37264297158227
SITRO-AIS 25            
1 59066U 24039R   26125.49246484  .00007323  00000+0  56824-3 0  9993
2 59066  95.3914 205.7594 0147515 117.0758 244.5607 14.93203055118351
